Canyon 2      
1 03889U 69036A   26154.43330404  .00000000  00000-0  00000-0 0    04
2 03889  13.5329  39.2227 0969311 194.3458 162.6999  1.00364372 15577
Rhyolite 1    
1 04418U 70046A   26154.29846710  .00000000  00000-0  00000-0 0    02
2 04418   2.2675  83.1368 0007515  52.1171 307.9630  1.00276334 18299
Canyon 6      
1 07963U 75055A   26154.98992741  .00000000  00000-0  00000-0 0    07
2 07963  10.1207 245.3548 1352695  66.3301 307.2746  1.00238714 23278
DSP F7 Cover  
1 09856U 77007D   26154.78101505  .00000000  00000-0  00000-0 0    07
2 09856   2.9655 260.3613 0234678 146.3317 215.1936  1.00603189 44220
Rhyolite 3    
1 10508U 77114A   26154.49925410  .00000000  00000-0  00000-0 0    09
2 10508  10.1340 274.8764 0024446   1.1792 358.8385  1.00197215  4700
Vortex 1      
1 10941U 78058A   26154.88787345  .00000000  00000-0  00000-0 0    04
2 10941  10.5843  17.5639 1517127  65.1112 309.8990  1.00125342  3547
Ekran 5       
1 11890U 80060A   26154.77184566  .00000000  00000-0  00000-0 0    08
2 11890   5.4762 284.5430 0010283 224.0784 135.8516  1.00176885 21965
Vortex 6      
1 19976U 89035A   26153.08356364  .00000000  00000-0  00000-0 0    02
2 19976   8.1460   7.1900 0909694 343.9719  13.3295  1.00270000 13796
SDS 2-2       
1 20963U 90097B   26154.63622208  .00000000  00000-0  00000-0 0    05
2 20963  14.0522 334.6666 0017759 287.4158  72.4021  0.98583046 15571
Trumpet 1     
1 23097U 94026A   26153.76546426  .00000062  00000-0  00000-0 0    00
2 23097  62.5743 144.6879 6732596 263.8820  21.8230  2.00604814  3538
Mercury 1     
1 23223U 94054A   26154.21843430  .00000000  00000-0  00000-0 0    00
2 23223  13.4315  10.4772 0028689  85.3186 275.0282  1.00270000  4264
Mentor 1      
1 23567U 95022A   26153.97659458  .00000000  00000-0  00000-0 0    04
2 23567  16.3791   8.0147 0031403 141.3458 218.8944  1.00270000 19623
Trumpet 2     
1 23609U 95034A   26153.71252928 -.00000420  00000-0  00000-0 0    04
2 23609  63.3007 113.7784 6867523 270.7010  17.7577  2.00591770  3532
Mercury 2     
1 23855U 96026A   26154.13242475  .00000000  00000-0  00000-0 0    05
2 23855   8.0627 353.4964 0332061 307.0211  49.9897  1.00270000  4269
Trumpet 3     
1 25034U 97068A   26153.78630298 -.00000698  00000-0  00000-0 0    01
2 25034  64.5100 306.4842 6355187 268.9317  22.9254  2.00733908  4257
Mentor 2      
1 25336U 98029A   26153.35871358  .00000000  00000-0  00000-0 0    07
2 25336   7.3418 353.7020 0036712 321.6606  38.0817  1.00270000  4255
USA 155       
1 26635U 00080A   26154.05055845  .00000000  00000-0  00000-0 0    03
2 26635  11.2990  20.3138 0007041 230.3526 129.5946  1.00273100 19679
Sicral 1      
1 26694U 01005A   26154.93182648  .00000000  00000-0  00000-0 0    05
2 26694  12.2237  30.4306 0007639 160.8042 199.2367  0.98743042  4264
GeoLITE       
1 26770U 01020A   26154.09074657  .00000000  00000-0  00000-0 0    04
2 26770  11.2975  32.5098 0013102 115.4791 244.6686  0.98837003 21615
SDS 3-2       
1 26948U 01046A   26153.72830002  .00000000  00000-0  00000-0 0    02
2 26948  14.0176  26.7802 0003322 213.4455 146.5438  1.00270000  7636
Mentor 3      
1 27937U 03041A   26154.20385743  .00000000  00000-0  00000-0 0    09
2 27937  15.0807  32.9262 0035097 254.8558 104.7631  1.00270000 13530
USA 179       
1 28384U 04034A   26153.17621456 -.00000461  00000-0  00000-0 0    00
2 28384  63.5852 210.2536 7258186 256.6408  20.0853  2.00243348  4696
USA 184       
1 29249U 06027A   26153.52617161  .00000165  00000-0  00000-0 0    02
2 29249  63.5209 240.4307 6849774 273.5326  16.8619  2.00618127  4570
DSP F23       
1 32287U 07054A   26154.05824371  .00000000  00000-0  00000-0 0    09
2 32287  10.8469  47.9726 0005735 189.7722 170.2288  1.00254645  4260
USA 198       
1 32378U 07060A   26153.66718877  .00000771  00000-0  00000-0 0    01
2 32378  63.9512 126.7604 7160130 262.9234  18.2756  2.00596936  3533
USA 200       
1 32706U 08010A   26153.73459877  .00000099  00000-0  00000-0 0    05
2 32706  63.5075 315.7794 7183231 268.9963  15.7928  2.00636144  4259
Mentor 4      
1 33490U 09001A   26154.26973850  .00000000  00000-0  00000-0 0    00
2 33490   8.8375  32.8268 0005943 254.6522 105.2897  1.00270000  1618
Sicral 1B     
1 34810U 09020A   26153.48985870  .00000000  00000-0  00000-0 0    06
2 34810   3.0809  79.0648 0003226 251.6862 108.2868  1.00270000   356
PAN           
1 35815U 09047A   26153.50715567  .00000000  00000-0  00000-0 0    08
2 35815   1.1497  87.9632 0010090 297.9590  61.9436  1.00263576  4252
Mentor 5      
1 37232U 10063A   26154.26225672  .00000000  00000-0  00000-0 0    00
2 37232   9.3947  82.0741 0024734 250.9660 108.7739  1.00270000 17307
USA 236       
1 38466U 12033A   26153.58046952  .00000000  00000-0  00000-0 0    05
2 38466   7.9065  76.3480 0005986 200.5792 159.4084  1.00270000  4697
Mentor 6      
1 38528U 12034A   26153.46852978  .00000000  00000-0  00000-0 0    05
2 38528   7.3202  59.6768 0040532 336.1145  23.6997  1.00271606  1594
USA 250       
1 39652U 14020A   26154.23487069  .00000000  00000-0  00000-0 0    02
2 39652   5.1496  58.1753 0004763 105.6914 254.3801  1.00270000 13521
USA 252       
1 39751U 14027A   26154.07300910  .00000000  00000-0  00000-0 0    00
2 39751   7.6286  87.6025 0003384 105.7542 254.3020  1.00270000 21779
CLIO          
1 40208U 14055A   26153.86576362  .00000000  00000-0  00000-0 0    02
2 40208   5.5403  73.8158 0015936 321.2451  38.6436  1.00281279 21651
USA 259       
1 40344U 14081A   26153.56181531  .00000252  00000-0  00000-0 0    08
2 40344  63.0781  75.9505 7054207 272.0133  15.7893  2.00612648   356
Sicral 2      
1 40614U 15022B   26153.49494329  .00000000  00000-0  00000-0 0    09
2 40614   0.0160 106.1566 0003453 357.2293   2.7690  1.00270000  1594
Mentor 7      
1 41584U 16036A   26154.02195243  .00000000  00000-0  00000-0 0    05
2 41584   6.0048   4.1907 0053096  74.3237 286.2823  1.00270000 17304
USA 269       
1 41724U 16047A   26153.44229632  .00000000  00000-0  00000-0 0    08
2 41724   3.9240  40.1892 0003733 213.1072 146.8803  1.00270000  4255
DSN 2         
1 41940U 17005A   26153.73648186  .00000000  00000-0  00000-0 0    04
2 41940   0.0250 249.3022 0003453 128.2467 231.8017  1.00270000 20862
DSN 2 Rk      
1 41941U 17005B   26153.98219183  .00004555  00000-0  27446-2 0    07
2 41941  21.2673  24.0537 7203466  46.3273 354.2972  2.35539376  3813
USA 278       
1 42941U 17056A   26153.82867413 -.00000708  00000-0  00000-0 0    04
2 42941  62.9060 147.1971 6799197 268.3383  19.2648  2.00591119  3535
USA 279       
1 42949U 17066A   26154.14823186  .00000000  00000-0  00000-0 0    02
2 42949   3.2705  36.9518 0010744 106.8131 253.3235  1.00270000 17310
GovSat 1      
1 43178U 18013A   26154.15906189  .00000000  00000-0  00000-0 0    06
2 43178   0.0052 330.3162 0004229 271.0888  88.8694  1.00270000   363
Mentor 8      
1 47237U 20095A   26153.96053666  .00000000  00000-0  00000-0 0    00
2 47237   3.3218 293.0841 0039145 196.8569 163.0248  1.00270000  4698
USA 339       
1 54220U 22144B   26154.35761873  .00000000  00000-0  00000-0 0    07
2 54220   0.8986  82.1385 0004134 177.2333 182.7816  0.99091599  1613
Mentor 10     
1 59453U 24067A   26153.84847769  .00000000  00000-0  00000-0 0    08
2 59453   6.3045 296.8661 0052935 182.4288 177.5585  1.00274000  2791
USA 396       
1 60322U 24134A   26154.24902335  .00000000  00000-0  00000-0 0    06
2 60322   0.2502 264.1008 0001361  65.3906 294.6336  0.99736654  1301
Unknown 000601
1 90007U 90097E   26154.44388224  .00000000  00000-0  00000-0 0    07
2 90007  12.9477 337.4325 0048343 288.3772  71.1097  1.00297180 16756
Unknown 110623
1 90087U 11674A   26153.78957991 -.00000037  00000-0  00000-0 0    09
2 90087  27.9224  16.6033 7289194 167.2199 234.0284  2.00863949 14881
ISON 69200    
1 90093U 14576A   26153.55170738  .00000348  00000-0  00000-0 0    05
2 90093   3.8127 342.7303 7220219 196.7113 113.5044  2.08603361  9621
ISON 37600    
1 90097U 14792A   26153.59025849  .00000000  00000-0  00000-0 0    00
2 90097   5.0402 355.2326 5551317 253.3796  41.2408  4.04496582 21910
ISON 59600    
1 90101U 14817A   26153.73577849  .00000000  00000-0  00000-0 0    02
2 90101  10.4966  69.6918 6997260 211.9861  74.2427  2.42755887 23453
ISON 64800    
1 90103U 14820A   26153.32057067  .00000000  00000-0  00000-0 0    08
2 90103  62.8583 268.5234 7107553 283.0874  12.1358  2.21905403 23233
ISON 68600    
1 90107U 14844B   26154.35874184  .00000000  00000-0  00000-0 0    09
2 90107   6.5097 307.8573 6210034  45.1642 351.0562  2.09780463 22743
ISON 54102    
1 90109U 15523A   26153.08967286  .00000000  00000-0  00000-0 0    01
2 90109   9.9359 335.9028 6742057 198.1882 115.6922  2.86246066 22060
ISON 60601    
1 90111U 15607A   26153.99592568  .00000000  00000-0  00000-0 0    04
2 90111  10.7383 274.9832 7043082 166.1777 234.8274  2.37824509 21856
ISON 62200    
1 90112U 15614A   26153.67123810  .00000109  00000-0  20558-3 0    01
2 90112   5.8009 267.0959 7162770 282.9459  11.8285  2.36220359 15940
ISON 63700    
1 90115U 16612A   26153.68479543  .00000000  00000-0  00000-0 0    08
2 90115   5.1789 141.1502 7107567 134.3362 312.4400  2.26349026  7776
ISON 51100    
1 90116U 16697A   26153.53879861  .00000000  00000-0  00000-0 0    03
2 90116   4.0714   7.8311 6603919  12.7397 358.0827  2.81037479 21656

